BEIJING 1               
1 28890U 05043A   26065.86914093  .00000599  00000+0  12510-3 0  9992
2 28890  98.2729 198.6133 0013448 239.7768 120.2103 14.63457555 85680
HUANJING 1A (HJ-1A)     
1 33320U 08041A   26065.87020694  .00002593  00000+0  31871-3 0  9990
2 33320  97.6634  55.7188 0020602 112.2186 248.1216 14.83710597943233
HUANJING 1B (HJ-1B)     
1 33321U 08041B   26065.86232645  .00001285  00000+0  16222-3 0  9991
2 33321  97.6477  59.1815 0036931 156.9769 203.3110 14.83092767943247
YAOGAN-4                
1 33446U 08061A   26065.81863771  .00001983  00000+0  25032-3 0  9990
2 33446  97.9251   0.1405 0015495  47.9855 312.2675 14.82968178930492
DEIMOS-1                
1 35681U 09041A   26065.83144012  .00001314  00000+0  20186-3 0  9997
2 35681  97.7252 227.5731 0002135 122.1150 238.0267 14.75111819891797
UK-DMC 2                
1 35683U 09041C   26065.85625410  .00001110  00000+0  16902-3 0  9992
2 35683  97.8651 203.4359 0001092  90.5935 269.5400 14.75843317891470
DMC3-FM1                
1 40715U 15032A   26065.89949391  .00000610  00000+0  76394-4 0  9998
2 40715  97.6614 295.0002 0006615  40.7457 319.4252 14.85606623574727
DMC3-FM2                
1 40716U 15032B   26065.85448177  .00001223  00000+0  14726-3 0  9992
2 40716  97.6669 296.4602 0007201  45.3102 314.8699 14.85611823574710
DMC3-FM3                
1 40717U 15032C   26065.81019993  .00001503  00000+0  17955-3 0  9997
2 40717  97.6725 298.1043 0006519  46.6316 313.5441 14.85612929574713
